[{"OBJECT_NAME":"FORMOSAT 7-3","OBJECT_ID":"2019-036E","EPOCH":"2026-03-09T19:49:52.754592","MEAN_MOTION":15.08933962,"ECCENTRICITY":0.00010606,"INCLINATION":23.9981,"RA_OF_ASC_NODE":141.9797,"ARG_OF_PERICENTER":150.4425,"MEAN_ANOMALY":209.6139,"EPHEMERIS_TYPE":0,"CLASSIFICATION_TYPE":"U","NORAD_CAT_ID":44343,"ELEMENT_SET_NO":999,"REV_AT_EPOCH":36821,"BSTAR":0.00037650049,"MEAN_MOTION_DOT":6.445e-5,"MEAN_MOTION_DDOT":0},{"OBJECT_NAME":"STARLINK-3639","OBJECT_ID":"2022-017X","EPOCH":"2026-03-09T22:12:30.855168","MEAN_MOTION":15.0884289,"ECCENTRICITY":0.00013497,"INCLINATION":53.219,"RA_OF_ASC_NODE":348.0566,"ARG_OF_PERICENTER":115.454,"MEAN_ANOMALY":244.6592,"EPHEMERIS_TYPE":0,"CLASSIFICATION_TYPE":"U","NORAD_CAT_ID":51789,"ELEMENT_SET_NO":999,"REV_AT_EPOCH":22231,"BSTAR":5.9659178e-5,"MEAN_MOTION_DOT":6.62e-6,"MEAN_MOTION_DDOT":0}]
